IRIDIUM 921 [-]         
1 24873U 97034E   23238.48830614  .00012556  00000+0  51095-3 0  9990
2 24873  86.3835  72.5083 0003681 309.9439  50.1483 15.24390105429948
IRIDIUM 26 [-]          
1 24903U 97043A   23238.49490671  .00000498  00000+0  16494-3 0  9996
2 24903  86.3973  27.7790 0002315  95.0021 265.1440 14.35971339361890
IRIDIUM 22 [-]          
1 24907U 97043E   23238.46350336  .00000493  00000+0  16680-3 0  9992
2 24907  86.3970  30.7946 0002096  92.0495 268.0942 14.34882985361993
DUMMY MASS 1 [-]        
1 24925U 97048A   23238.50922193  .00000456  00000+0  49223-4 0  9997
2 24925  86.3297  80.5550 0005972 346.5861  13.5203 14.85797845407236
DUMMY MASS 2 [-]        
1 24926U 97048B   23238.49814133  .00000447  00000+0  48500-4 0  9997
2 24926  86.3297  82.0528 0007182 355.6558   4.4603 14.85560095406785
IRIDIUM 29 [-]          
1 24944U 97051A   23238.49056831  .00000455  00000+0  15187-3 0  9997
2 24944  86.3915  60.8004 0001894  92.2202 267.9211 14.35346683358461
IRIDIUM 33 [-]          
1 24946U 97051C   23238.46004843  .00000334  00000+0  11238-3 0  9991
2 24946  86.3831  60.0952 0009981  77.7942 282.4371 14.34092123358025
IRIDIUM 28 [-]          
1 24948U 97051E   23238.54897912  .00000472  00000+0  15503-3 0  9991
2 24948  86.3923  58.6698 0002518  89.7372 270.4113 14.36264740358982
